[{"OBJECT_NAME":"STARLINK-32910","OBJECT_ID":"2025-037N","EPOCH":"2026-03-09T23:21:53.835264","MEAN_MOTION":14.98327777,"ECCENTRICITY":0.00025697,"INCLINATION":70.0042,"RA_OF_ASC_NODE":353.7719,"ARG_OF_PERICENTER":252.3514,"MEAN_ANOMALY":107.7365,"EPHEMERIS_TYPE":0,"CLASSIFICATION_TYPE":"U","NORAD_CAT_ID":63089,"ELEMENT_SET_NO":999,"REV_AT_EPOCH":5864,"BSTAR":0.0013295656,"MEAN_MOTION_DOT":0.00015806,"MEAN_MOTION_DDOT":0},{"OBJECT_NAME":"AUREOLE 3","OBJECT_ID":"1981-094A","EPOCH":"2026-03-09T22:56:08.699136","MEAN_MOTION":14.57338362,"ECCENTRICITY":0.04661674,"INCLINATION":82.4728,"RA_OF_ASC_NODE":18.4217,"ARG_OF_PERICENTER":152.6496,"MEAN_ANOMALY":210.011,"EPHEMERIS_TYPE":0,"CLASSIFICATION_TYPE":"U","NORAD_CAT_ID":12848,"ELEMENT_SET_NO":999,"REV_AT_EPOCH":24579,"BSTAR":0.00036802008,"MEAN_MOTION_DOT":8.02e-5,"MEAN_MOTION_DDOT":0}]
